{
"type": "FeatureCollection",
"name": "Zona_Top5_Prioritas",
"crs": { "type": "name", "properties": { "name": "urn:ogc:def:crs:OGC:1.3:CRS84" } },
"features": [
{ "type": "Feature", "properties": { "ID_PROV_1": "31", "PROVINSI_1": "DKI JAKARTA", "ID_KABKOT_1": "31.74", "KABKOT_1": "KOTA ADM. JAKARTA SELATAN", "ID_KEC_1": "31.74.05", "KECAMATAN_1": "KEBAYORAN LAMA", "ID_DESA_1": "31.74.05.1004", "DESA_1": "GROGOL UTARA", "KELAS_RISIKO": "SEDANG", "fid": 123, "ID_PROV_2": "31", "PROVINSI_2": "DKI JAKARTA", "ID_KABKOT_2": "31.74", "KABKOT_2": "KOTA ADM. JAKARTA SELATAN", "ID_KEC_2": "31.74.05", "KECAMATAN_2": "KEBAYORAN LAMA", "ID_DESA_2": "31.74.05.1004", "DESA_2": "GROGOL UTARA", "TUTUPAN_LAHAN": "LAHAN TERBANGUN", "longitude": 106.78679350983599, "latitude": -6.216845331857999, "q": 27422, "r": -15096, "Luas_m2": 34331.849467757551, "SKOR_TOTAL": 5, "KETERANGAN_RISIKO": "Risiko Sangat Tinggi (Prioritas Utama)" }, "geometry": { "type": "Polygon", "coordinates": [ [ [ 106.784625434000077, -6.206742192999968, 0.0 ], [ 106.784774955000032, -6.206755311999926, 0.0 ], [ 106.784784995000052, -6.206756191999944, 0.0 ], [ 106.784990971000056, -6.206774264999979, 0.0 ], [ 106.785073443026221, -6.206781501055765, 0.0 ], [ 106.785073443026221, -6.206909455623833, 0.0 ], [ 106.785522600668273, -6.206909455623833, 0.0 ], [ 106.785522600668273, -6.206815621699383, 0.0 ], [ 106.785639631000038, -6.206823335999957, 0.0 ], [ 106.785734378000072, -6.206829581999953, 0.0 ], [ 106.785847992008883, -6.206839393222122, 0.0 ], [ 106.785847992008883, -6.208214915590284, 0.0 ], [ 106.784050933886846, -6.208214915590284, 0.0 ], [ 106.784050933886846, -6.207316386529262, 0.0 ], [ 106.78327681245797, -6.207316386529262, 0.0 ], [ 106.78327681245797, -6.206909455623833, 0.0 ], [ 106.784624285384169, -6.206909455623833, 0.0 ], [ 106.784624285384169, -6.206742108009214, 0.0 ], [ 106.784625434000077, -6.206742192999968, 0.0 ] ] ] } },
{ "type": "Feature", "properties": { "ID_PROV_1": "31", "PROVINSI_1": "DKI JAKARTA", "ID_KABKOT_1": "31.74", "KABKOT_1": "KOTA ADM. JAKARTA SELATAN", "ID_KEC_1": "31.74.05", "KECAMATAN_1": "KEBAYORAN LAMA", "ID_DESA_1": "31.74.05.1004", "DESA_1": "GROGOL UTARA", "KELAS_RISIKO": "SEDANG", "fid": 124, "ID_PROV_2": "31", "PROVINSI_2": "DKI JAKARTA", "ID_KABKOT_2": "31.74", "KABKOT_2": "KOTA ADM. JAKARTA SELATAN", "ID_KEC_2": "31.74.05", "KECAMATAN_2": "KEBAYORAN LAMA", "ID_DESA_2": "31.74.05.1004", "DESA_2": "GROGOL UTARA", "TUTUPAN_LAHAN": "LAHAN TERBUKA", "longitude": 106.78783370034789, "latitude": -6.2165935452793102, "q": 27422, "r": -15096, "Luas_m2": 4355.9410751406194, "SKOR_TOTAL": 4, "KETERANGAN_RISIKO": "Risiko Tinggi" }, "geometry": { "type": "Polygon", "coordinates": [ [ [ 106.783154390000036, -6.206958277999946, 0.0 ], [ 106.783160482000085, -6.206916329999957, 0.0 ], [ 106.783173874000056, -6.206861089999961, 0.0 ], [ 106.783174924000051, -6.206856758999947, 0.0 ], [ 106.783175679000053, -6.206854681999971, 0.0 ], [ 106.783195862000071, -6.206799150999927, 0.0 ], [ 106.783196181000037, -6.206798485999968, 0.0 ], [ 106.783209805000055, -6.206774632999953, 0.0 ], [ 106.783203464000053, -6.20672722399996, 0.0 ], [ 106.783205517000042, -6.206721442999934, 0.0 ], [ 106.783211401000074, -6.206704876999935, 0.0 ], [ 106.78321219300004, -6.206702762999954, 0.0 ], [ 106.783213797000087, -6.206702478999945, 0.0 ], [ 106.783282386000039, -6.206690376999973, 0.0 ], [ 106.783380790000066, -6.206680854999946, 0.0 ], [ 106.78344000900006, -6.206675123999957, 0.0 ], [ 106.783474333000058, -6.20667560499993, 0.0 ], [ 106.78347689800006, -6.206675639999958, 0.0 ], [ 106.783693547000041, -6.206678669999975, 0.0 ], [ 106.783784122000029, -6.206679935999943, 0.0 ], [ 106.783909907000051, -6.206689241999924, 0.0 ], [ 106.784126196000031, -6.206705247999934, 0.0 ], [ 106.78434248800005, -6.206721253999944, 0.0 ], [ 106.784381632000077, -6.206724150999944, 0.0 ], [ 106.784558780000054, -6.206737260999943, 0.0 ], [ 106.784624285384169, -6.206742108009214, 0.0 ], [ 106.784624285384169, -6.206909455623833, 0.0 ], [ 106.78327681245797, -6.206909455623833, 0.0 ], [ 106.78327681245797, -6.207316386529262, 0.0 ], [ 106.783170963927205, -6.207316386529262, 0.0 ], [ 106.783167693000038, -6.207276651999961, 0.0 ], [ 106.783162986000022, -6.207202664999954, 0.0 ], [ 106.783155952000058, -6.207092088999955, 0.0 ], [ 106.783154063000055, -6.20706240299995, 0.0 ], [ 106.783153606000027, -6.207051260999945, 0.0 ], [ 106.783152404825799, -6.20702201511879, 0.0 ], [ 106.783152404825799, -6.206987576429253, 0.0 ], [ 106.783153776000049, -6.206967350999946, 0.0 ], [ 106.783154390000036, -6.206958277999946, 0.0 ] ] ] } },
{ "type": "Feature", "properties": { "ID_PROV_1": "31", "PROVINSI_1": "DKI JAKARTA", "ID_KABKOT_1": "31.74", "KABKOT_1": "KOTA ADM. JAKARTA SELATAN", "ID_KEC_1": "31.74.05", "KECAMATAN_1": "KEBAYORAN LAMA", "ID_DESA_1": "31.74.05.1004", "DESA_1": "GROGOL UTARA", "KELAS_RISIKO": "SEDANG", "fid": 124, "ID_PROV_2": "31", "PROVINSI_2": "DKI JAKARTA", "ID_KABKOT_2": "31.74", "KABKOT_2": "KOTA ADM. JAKARTA SELATAN", "ID_KEC_2": "31.74.05", "KECAMATAN_2": "KEBAYORAN LAMA", "ID_DESA_2": "31.74.05.1004", "DESA_2": "GROGOL UTARA", "TUTUPAN_LAHAN": "LAHAN TERBUKA", "longitude": 106.78783370034789, "latitude": -6.2165935452793102, "q": 27422, "r": -15096, "Luas_m2": 614.05661936185197, "SKOR_TOTAL": 4, "KETERANGAN_RISIKO": "Risiko Tinggi" }, "geometry": { "type": "Polygon", "coordinates": [ [ [ 106.78520703100007, -6.206793221999932, 0.0 ], [ 106.785280284000066, -6.206799648999947, 0.0 ], [ 106.785417114000026, -6.20680866899994, 0.0 ], [ 106.785423238000078, -6.206809071999941, 0.0 ], [ 106.785522600668273, -6.206815621699383, 0.0 ], [ 106.785522600668273, -6.206909455623833, 0.0 ], [ 106.785073443026221, -6.206909455623833, 0.0 ], [ 106.785073443026221, -6.206781501055765, 0.0 ], [ 106.78520703100007, -6.206793221999932, 0.0 ] ] ] } },
{ "type": "Feature", "properties": { "ID_PROV_1": "31", "PROVINSI_1": "DKI JAKARTA", "ID_KABKOT_1": "31.74", "KABKOT_1": "KOTA ADM. JAKARTA SELATAN", "ID_KEC_1": "31.74.05", "KECAMATAN_1": "KEBAYORAN LAMA", "ID_DESA_1": "31.74.05.1004", "DESA_1": "GROGOL UTARA", "KELAS_RISIKO": "SEDANG", "fid": 123, "ID_PROV_2": "31", "PROVINSI_2": "DKI JAKARTA", "ID_KABKOT_2": "31.74", "KABKOT_2": "KOTA ADM. JAKARTA SELATAN", "ID_KEC_2": "31.74.05", "KECAMATAN_2": "KEBAYORAN LAMA", "ID_DESA_2": "31.74.05.1004", "DESA_2": "GROGOL UTARA", "TUTUPAN_LAHAN": "LAHAN TERBANGUN", "longitude": 106.78679350983599, "latitude": -6.216845331857999, "q": 27422, "r": -15096, "Luas_m2": 4826.9940232515019, "SKOR_TOTAL": 5, "KETERANGAN_RISIKO": "Risiko Sangat Tinggi (Prioritas Utama)" }, "geometry": { "type": "Polygon", "coordinates": [ [ [ 106.787645050130934, -6.207316386529262, 0.0 ], [ 106.787719164363622, -6.207316386529262, 0.0 ], [ 106.787726584000026, -6.207326068999976, 0.0 ], [ 106.787891001000048, -6.207558647999973, 0.0 ], [ 106.787942056000063, -6.207634431999963, 0.0 ], [ 106.787997692000019, -6.20770712899997, 0.0 ], [ 106.788056513000072, -6.207777270999941, 0.0 ], [ 106.788118400000087, -6.207844716999944, 0.0 ], [ 106.788183231000048, -6.207909334999953, 0.0 ], [ 106.788280952000051, -6.207999914999959, 0.0 ], [ 106.788451574000078, -6.208158714999968, 0.0 ], [ 106.788464353000052, -6.208170607999931, 0.0 ], [ 106.788489273000025, -6.208190562999959, 0.0 ], [ 106.788519686433006, -6.208214915590284, 0.0 ], [ 106.787645050130934, -6.208214915590284, 0.0 ], [ 106.787645050130934, -6.207316386529262, 0.0 ] ] ] } },
{ "type": "Feature", "properties": { "ID_PROV_1": "31", "PROVINSI_1": "DKI JAKARTA", "ID_KABKOT_1": "31.74", "KABKOT_1": "KOTA ADM. JAKARTA SELATAN", "ID_KEC_1": "31.74.05", "KECAMATAN_1": "KEBAYORAN LAMA", "ID_DESA_1": "31.74.05.1004", "DESA_1": "GROGOL UTARA", "KELAS_RISIKO": "SEDANG", "fid": 123, "ID_PROV_2": "31", "PROVINSI_2": "DKI JAKARTA", "ID_KABKOT_2": "31.74", "KABKOT_2": "KOTA ADM. JAKARTA SELATAN", "ID_KEC_2": "31.74.05", "KECAMATAN_2": "KEBAYORAN LAMA", "ID_DESA_2": "31.74.05.1004", "DESA_2": "GROGOL UTARA", "TUTUPAN_LAHAN": "LAHAN TERBANGUN", "longitude": 106.78679350983599, "latitude": -6.216845331857999, "q": 27422, "r": -15096, "Luas_m2": 3229.648950715401, "SKOR_TOTAL": 5, "KETERANGAN_RISIKO": "Risiko Sangat Tinggi (Prioritas Utama)" }, "geometry": { "type": "Polygon", "coordinates": [ [ [ 106.789591915671124, -6.208214915590284, 0.0 ], [ 106.789631888000088, -6.208164785999939, 0.0 ], [ 106.789679186000043, -6.208112523999944, 0.0 ], [ 106.789729651000059, -6.208063318999962, 0.0 ], [ 106.789854763000051, -6.207948063999936, 0.0 ], [ 106.789882236000039, -6.207925589999944, 0.0 ], [ 106.789970027000038, -6.207853774999932, 0.0 ], [ 106.790013824000084, -6.207824086999948, 0.0 ], [ 106.790078103000042, -6.207771678999961, 0.0 ], [ 106.790163401000086, -6.20770411099994, 0.0 ], [ 106.790221510000038, -6.20765807899994, 0.0 ], [ 106.790340637314003, -6.207584348361657, 0.0 ], [ 106.790340637314003, -6.208214915590284, 0.0 ], [ 106.789591915671124, -6.208214915590284, 0.0 ] ] ] } }
]
}
